STARLINK-33556          
1 62109U 24220X   26053.06309629  .00018636  00000+0  68546-3 0  9994
2 62109  43.0027 293.5956 0001554 274.7381  85.3293 15.27559664 70829
STARLINK-33551          
1 62110U 24220Y   26053.01569152  .00022640  00000+0  83033-3 0  9998
2 62110  43.0004 294.0985 0001608 272.7339  87.3328 15.27555756 70790
STARLINK-32311          
1 62114U 24222A   26053.79137821  .00031469  00000+0  11479-2 0  9996
2 62114  43.0028 205.3397 0001775 263.0384  97.0266 15.27588440 70807
STARLINK-32470          
1 62115U 24222B   26053.79860394  .00039101  00000+0  14218-2 0  9990
2 62115  43.0016 220.1033 0002503 251.6926 108.3653 15.27604336 70621
STARLINK-32502          
1 62116U 24222C   26053.82042954  .00031821  00000+0  11611-2 0  9994
2 62116  42.9968 220.2631 0001626 284.0706  75.9964 15.27574580 70533
STARLINK-32521          
1 62117U 24222D   26053.80675846  .00032359  00000+0  11799-2 0  9999
2 62117  42.9999 216.5874 0001662 267.1184  92.9477 15.27589921 70518
STARLINK-32549          
1 62118U 24222E   26053.78445387  .00025092  00000+0  91807-3 0  9997
2 62118  42.9997 220.0048 0001907 282.1496  77.9142 15.27586126 70533
STARLINK-32535          
1 62119U 24222F   26053.82862213  .00034336  00000+0  12507-2 0  9994
2 62119  43.0037 216.8739 0001554 269.1325  90.9348 15.27600455 70529
STARLINK-32548          
1 62120U 24222G   26053.83456376  .00035756  00000+0  13013-2 0  9996
2 62120  43.0027 220.3720 0001780 274.2944  85.7704 15.27613337 70481
STARLINK-32525          
1 62121U 24222H   26052.87546045  .00022462  00000+0  82280-3 0  9996
2 62121  43.0011 225.2162 0001851 276.4529  83.6112 15.27598799 70340
STARLINK-32628          
1 62122U 24222J   26053.74347679  .00036357  00000+0  13238-2 0  9990
2 62122  42.9999 220.5482 0001780 267.0001  93.0647 15.27590804 70638
STARLINK-32626          
1 62123U 24222K   26053.76275360  .00025190  00000+0  92100-3 0  9999
2 62123  42.9987 220.6910 0001524 281.0328  79.0352 15.27608382 70466
STARLINK-32608          
1 62124U 24222L   26052.82164128  .00030708  00000+0  11202-2 0  9999
2 62124  42.9993 225.6708 0001720 272.1469  87.9185 15.27597754 70315
STARLINK-32488          
1 62125U 24222M   26053.18455318  .00028744  00000+0  10492-2 0  9991
2 62125  43.0016 224.0928 0001477 273.6887  86.3796 15.27605062 70278
STARLINK-32490          
1 62126U 24222N   26053.72163090  .00022805  00000+0  83542-3 0  9994
2 62126  43.0047 220.3881 0001561 263.2303  96.8371 15.27589948 70462
STARLINK-32557          
1 62127U 24222P   26053.74104931  .00028322  00000+0  10343-2 0  9994
2 62127  43.0032 210.0018 0001688 266.9017  93.1642 15.27593745 70637
