[{"OBJECT_NAME":"STARLINK-33556","OBJECT_ID":"2024-220X","EPOCH":"2026-02-22T01:30:51.519456","MEAN_MOTION":15.27559664,"ECCENTRICITY":0.0001554,"INCLINATION":43.0027,"RA_OF_ASC_NODE":293.5956,"ARG_OF_PERICENTER":274.7381,"MEAN_ANOMALY":85.3293,"EPHEMERIS_TYPE":0,"CLASSIFICATION_TYPE":"U","NORAD_CAT_ID":62109,"ELEMENT_SET_NO":999,"REV_AT_EPOCH":7082,"BSTAR":0.00068546,"MEAN_MOTION_DOT":0.00018636,"MEAN_MOTION_DDOT":0},{"OBJECT_NAME":"STARLINK-33551","OBJECT_ID":"2024-220Y","EPOCH":"2026-02-22T00:22:35.747328","MEAN_MOTION":15.27555756,"ECCENTRICITY":0.0001608,"INCLINATION":43.0004,"RA_OF_ASC_NODE":294.0985,"ARG_OF_PERICENTER":272.7339,"MEAN_ANOMALY":87.3328,"EPHEMERIS_TYPE":0,"CLASSIFICATION_TYPE":"U","NORAD_CAT_ID":62110,"ELEMENT_SET_NO":999,"REV_AT_EPOCH":7079,"BSTAR":0.00083033,"MEAN_MOTION_DOT":0.0002264,"MEAN_MOTION_DDOT":0},{"OBJECT_NAME":"STARLINK-32311","OBJECT_ID":"2024-222A","EPOCH":"2026-02-22T18:59:35.077344","MEAN_MOTION":15.2758844,"ECCENTRICITY":0.0001775,"INCLINATION":43.0028,"RA_OF_ASC_NODE":205.3397,"ARG_OF_PERICENTER":263.0384,"MEAN_ANOMALY":97.0266,"EPHEMERIS_TYPE":0,"CLASSIFICATION_TYPE":"U","NORAD_CAT_ID":62114,"ELEMENT_SET_NO":999,"REV_AT_EPOCH":7080,"BSTAR":0.0011479,"MEAN_MOTION_DOT":0.00031469,"MEAN_MOTION_DDOT":0},{"OBJECT_NAME":"STARLINK-32470","OBJECT_ID":"2024-222B","EPOCH":"2026-02-22T19:09:59.380416","MEAN_MOTION":15.27604336,"ECCENTRICITY":0.0002503,"INCLINATION":43.0016,"RA_OF_ASC_NODE":220.1033,"ARG_OF_PERICENTER":251.6926,"MEAN_ANOMALY":108.3653,"EPHEMERIS_TYPE":0,"CLASSIFICATION_TYPE":"U","NORAD_CAT_ID":62115,"ELEMENT_SET_NO":999,"REV_AT_EPOCH":7062,"BSTAR":0.0014218,"MEAN_MOTION_DOT":0.00039101,"MEAN_MOTION_DDOT":0},{"OBJECT_NAME":"STARLINK-32502","OBJECT_ID":"2024-222C","EPOCH":"2026-02-22T19:41:25.112256","MEAN_MOTION":15.2757458,"ECCENTRICITY":0.0001626,"INCLINATION":42.9968,"RA_OF_ASC_NODE":220.2631,"ARG_OF_PERICENTER":284.0706,"MEAN_ANOMALY":75.9964,"EPHEMERIS_TYPE":0,"CLASSIFICATION_TYPE":"U","NORAD_CAT_ID":62116,"ELEMENT_SET_NO":999,"REV_AT_EPOCH":7053,"BSTAR":0.0011611,"MEAN_MOTION_DOT":0.00031821,"MEAN_MOTION_DDOT":0},{"OBJECT_NAME":"STARLINK-32521","OBJECT_ID":"2024-222D","EPOCH":"2026-02-22T19:21:43.930944","MEAN_MOTION":15.27589921,"ECCENTRICITY":0.0001662,"INCLINATION":42.9999,"RA_OF_ASC_NODE":216.5874,"ARG_OF_PERICENTER":267.1184,"MEAN_ANOMALY":92.9477,"EPHEMERIS_TYPE":0,"CLASSIFICATION_TYPE":"U","NORAD_CAT_ID":62117,"ELEMENT_SET_NO":999,"REV_AT_EPOCH":7051,"BSTAR":0.0011799,"MEAN_MOTION_DOT":0.00032359,"MEAN_MOTION_DDOT":0},{"OBJECT_NAME":"STARLINK-32549","OBJECT_ID":"2024-222E","EPOCH":"2026-02-22T18:49:36.814368","MEAN_MOTION":15.27586126,"ECCENTRICITY":0.0001907,"INCLINATION":42.9997,"RA_OF_ASC_NODE":220.0048,"ARG_OF_PERICENTER":282.1496,"MEAN_ANOMALY":77.9142,"EPHEMERIS_TYPE":0,"CLASSIFICATION_TYPE":"U","NORAD_CAT_ID":62118,"ELEMENT_SET_NO":999,"REV_AT_EPOCH":7053,"BSTAR":0.00091807,"MEAN_MOTION_DOT":0.00025092,"MEAN_MOTION_DDOT":0},{"OBJECT_NAME":"STARLINK-32535","OBJECT_ID":"2024-222F","EPOCH":"2026-02-22T19:53:12.952032","MEAN_MOTION":15.27600455,"ECCENTRICITY":0.0001554,"INCLINATION":43.0037,"RA_OF_ASC_NODE":216.8739,"ARG_OF_PERICENTER":269.1325,"MEAN_ANOMALY":90.9348,"EPHEMERIS_TYPE":0,"CLASSIFICATION_TYPE":"U","NORAD_CAT_ID":62119,"ELEMENT_SET_NO":999,"REV_AT_EPOCH":7052,"BSTAR":0.0012507,"MEAN_MOTION_DOT":0.00034336,"MEAN_MOTION_DDOT":0},{"OBJECT_NAME":"STARLINK-32548","OBJECT_ID":"2024-222G","EPOCH":"2026-02-22T20:01:46.308864","MEAN_MOTION":15.27613337,"ECCENTRICITY":0.000178,"INCLINATION":43.0027,"RA_OF_ASC_NODE":220.372,"ARG_OF_PERICENTER":274.2944,"MEAN_ANOMALY":85.7704,"EPHEMERIS_TYPE":0,"CLASSIFICATION_TYPE":"U","NORAD_CAT_ID":62120,"ELEMENT_SET_NO":999,"REV_AT_EPOCH":7048,"BSTAR":0.0013013,"MEAN_MOTION_DOT":0.00035756,"MEAN_MOTION_DDOT":0},{"OBJECT_NAME":"STARLINK-32525","OBJECT_ID":"2024-222H","EPOCH":"2026-02-21T21:00:39.782880","MEAN_MOTION":15.27598799,"ECCENTRICITY":0.0001851,"INCLINATION":43.0011,"RA_OF_ASC_NODE":225.2162,"ARG_OF_PERICENTER":276.4529,"MEAN_ANOMALY":83.6112,"EPHEMERIS_TYPE":0,"CLASSIFICATION_TYPE":"U","NORAD_CAT_ID":62121,"ELEMENT_SET_NO":999,"REV_AT_EPOCH":7034,"BSTAR":0.0008228,"MEAN_MOTION_DOT":0.00022462,"MEAN_MOTION_DDOT":0},{"OBJECT_NAME":"STARLINK-32628","OBJECT_ID":"2024-222J","EPOCH":"2026-02-22T17:50:36.394656","MEAN_MOTION":15.27590804,"ECCENTRICITY":0.000178,"INCLINATION":42.9999,"RA_OF_ASC_NODE":220.5482,"ARG_OF_PERICENTER":267.0001,"MEAN_ANOMALY":93.0647,"EPHEMERIS_TYPE":0,"CLASSIFICATION_TYPE":"U","NORAD_CAT_ID":62122,"ELEMENT_SET_NO":999,"REV_AT_EPOCH":7063,"BSTAR":0.0013238,"MEAN_MOTION_DOT":0.00036357,"MEAN_MOTION_DDOT":0},{"OBJECT_NAME":"STARLINK-32626","OBJECT_ID":"2024-222K","EPOCH":"2026-02-22T18:18:21.911040","MEAN_MOTION":15.27608382,"ECCENTRICITY":0.0001524,"INCLINATION":42.9987,"RA_OF_ASC_NODE":220.691,"ARG_OF_PERICENTER":281.0328,"MEAN_ANOMALY":79.0352,"EPHEMERIS_TYPE":0,"CLASSIFICATION_TYPE":"U","NORAD_CAT_ID":62123,"ELEMENT_SET_NO":999,"REV_AT_EPOCH":7046,"BSTAR":0.000921,"MEAN_MOTION_DOT":0.0002519,"MEAN_MOTION_DDOT":0},{"OBJECT_NAME":"STARLINK-32608","OBJECT_ID":"2024-222L","EPOCH":"2026-02-21T19:43:09.806592","MEAN_MOTION":15.27597754,"ECCENTRICITY":0.00017204,"INCLINATION":42.9993,"RA_OF_ASC_NODE":225.6708,"ARG_OF_PERICENTER":272.1469,"MEAN_ANOMALY":87.9185,"EPHEMERIS_TYPE":0,"CLASSIFICATION_TYPE":"U","NORAD_CAT_ID":62124,"ELEMENT_SET_NO":999,"REV_AT_EPOCH":7031,"BSTAR":0.0011201707,"MEAN_MOTION_DOT":0.00030708,"MEAN_MOTION_DDOT":0},{"OBJECT_NAME":"STARLINK-32488","OBJECT_ID":"2024-222M","EPOCH":"2026-02-22T04:25:45.394752","MEAN_MOTION":15.27605062,"ECCENTRICITY":0.0001477,"INCLINATION":43.0016,"RA_OF_ASC_NODE":224.0928,"ARG_OF_PERICENTER":273.6887,"MEAN_ANOMALY":86.3796,"EPHEMERIS_TYPE":0,"CLASSIFICATION_TYPE":"U","NORAD_CAT_ID":62125,"ELEMENT_SET_NO":999,"REV_AT_EPOCH":7027,"BSTAR":0.0010492,"MEAN_MOTION_DOT":0.00028744,"MEAN_MOTION_DDOT":0},{"OBJECT_NAME":"STARLINK-32490","OBJECT_ID":"2024-222N","EPOCH":"2026-02-22T17:19:08.909760","MEAN_MOTION":15.27589948,"ECCENTRICITY":0.0001561,"INCLINATION":43.0047,"RA_OF_ASC_NODE":220.3881,"ARG_OF_PERICENTER":263.2303,"MEAN_ANOMALY":96.8371,"EPHEMERIS_TYPE":0,"CLASSIFICATION_TYPE":"U","NORAD_CAT_ID":62126,"ELEMENT_SET_NO":999,"REV_AT_EPOCH":7046,"BSTAR":0.00083542,"MEAN_MOTION_DOT":0.00022805,"MEAN_MOTION_DDOT":0},{"OBJECT_NAME":"STARLINK-32557","OBJECT_ID":"2024-222P","EPOCH":"2026-02-22T17:47:06.660384","MEAN_MOTION":15.27593745,"ECCENTRICITY":0.0001688,"INCLINATION":43.0032,"RA_OF_ASC_NODE":210.0018,"ARG_OF_PERICENTER":266.9017,"MEAN_ANOMALY":93.1642,"EPHEMERIS_TYPE":0,"CLASSIFICATION_TYPE":"U","NORAD_CAT_ID":62127,"ELEMENT_SET_NO":999,"REV_AT_EPOCH":7063,"BSTAR":0.0010343,"MEAN_MOTION_DOT":0.00028322,"MEAN_MOTION_DDOT":0}]
